XRISM                   
1 57800U 23137A   24249.18799704  .00014178  00000+0  10350-2 0  9993
2 57800  31.0027 222.9421 0009907 278.6429  81.3085 15.02487803 54721
